IRIDIUM 112             
1 41925U 17003J   24149.61034924  .00000209  00000+0  67725-4 0  9992
2 41925  86.3987  41.5521 0002349  79.9177 280.2284 14.34219027385869
IRIDIUM 111             
1 41926U 17003K   24149.45812841  .00000261  00000+0  86295-4 0  9998
2 41926  86.3990  41.6697 0002079  77.2511 282.8917 14.34217604385794
IRIDIUM 113             
1 42803U 17039A   24149.57763083  .00000272  00000+0  90062-4 0  9997
2 42803  86.3956 275.3808 0002002  90.1464 269.9961 14.34218721363745
IRIDIUM 123             
1 42804U 17039B   24149.47957166  .00000184  00000+0  58596-4 0  9992
2 42804  86.3942 306.9387 0002062  88.6311 271.5121 14.34217731362491
IRIDIUM 120             
1 42805U 17039C   24149.43175046  .00000361  00000+0  12179-3 0  9991
2 42805  86.3945 275.3213 0002182  95.0699 265.0746 14.34217258363717
IRIDIUM 115             
1 42806U 17039D   24149.58289035  .00000554  00000+0  15885-3 0  9993
2 42806  86.4484 275.2797 0001991  84.6322 275.5106 14.43277577366143
IRIDIUM 118             
1 42807U 17039E   24149.51128150  .00000344  00000+0  11565-3 0  9995
2 42807  86.3941 306.9268 0002331  89.6074 270.5389 14.34220180362494
IRIDIUM 117             
1 42808U 17039F   24149.87914221  .00000351  00000+0  11824-3 0  9993
2 42808  86.3944 306.7379 0001832  98.6450 261.4953 14.34216167362588
